NORAD_CAT_ID,OBJECT_NAME,OBJECT_TYPE,EPOCH,MEAN_MOTION,ECCENTRICITY,INCLINATION,RA_OF_ASC_NODE,ARG_OF_PERICENTER,MEAN_ANOMALY,BSTAR,MEAN_MOTION_DOT,MEAN_MOTION_DDOT,TLE_LINE0,TLE_LINE1,TLE_LINE2,SEMIMAJOR_AXIS,PERIOD,APOGEE,PERIGEE,DECAYED
51874.0,STARLINK-3574,PAYLOAD,2023-10-20 11:42:03,15.08845494,0.0001988,53.2171,320.0991,101.9616,258.1599,7.5398e-05,9.12e-06,0.0,0 STARLINK-3574,1 51874U 22022Y   23293.48754322  .00000912  00000-0  75398-4 0  9995,2 51874  53.2171 320.0991 0001988 101.9616 258.1599 15.08845494 91580,6917.864,95.437,541.104,538.353,0.0
51874.0,STARLINK-3574,PAYLOAD,2023-10-21 02:00:32,15.08837872,0.0002115,53.2173,317.4221,101.3573,258.7656,-2.5363e-05,-6.92e-06,0.0,0 STARLINK-3574,1 51874U 22022Y   23294.08370827 -.00000692  00000-0 -25363-4 0  9990,2 51874  53.2173 317.4221 0002115 101.3573 258.7656 15.08837872 91678,6917.887,95.438,541.215,538.289,0.0
51874.0,STARLINK-3574,PAYLOAD,2023-10-21 08:22:04,15.08842261,0.000205,53.2176,316.2332,103.7266,256.3954,1.9457e-05,2.1e-07,0.0,0 STARLINK-3574,1 51874U 22022Y   23294.34866643  .00000021  00000-0  19457-4 0  9996,2 51874  53.2176 316.2332 0002050 103.7266 256.3954 15.08842261 91712,6917.873,95.437,541.157,538.32,0.0
51874.0,STARLINK-3574,PAYLOAD,2023-10-22 05:02:05,15.08840833,0.0002016,53.2173,312.3675,103.5283,256.5934,7.9445e-05,9.76e-06,0.0,0 STARLINK-3574,1 51874U 22022Y   23295.20978688  .00000976  00000-0  79445-4 0  9997,2 51874  53.2173 312.3675 0002016 103.5283 256.5934 15.08840833 91842,6917.878,95.438,541.137,538.348,0.0
51874.0,STARLINK-3574,PAYLOAD,2023-10-22 11:23:37,15.08845118,0.0001884,53.2173,311.1798,92.058,268.0628,0.0001522,2.135e-05,0.0,0 STARLINK-3574,1 51874U 22022Y   23295.47474533  .00002135  00000-0  15220-3 0  9995,2 51874  53.2173 311.1798 0001884  92.0580 268.0628 15.08845118 91882,6917.865,95.437,541.033,538.426,0.0
51874.0,STARLINK-3574,PAYLOAD,2023-10-22 17:45:10,15.08837244,0.0001782,53.2172,309.9872,84.5171,275.6024,3.9441e-05,3.4e-06,0.0,0 STARLINK-3574,1 51874U 22022Y   23295.73970932  .00000340  00000-0  39441-4 0  9996,2 51874  53.2172 309.9872 0001782  84.5171 275.6024 15.08837244 91928,6917.889,95.438,540.987,538.521,0.0
51874.0,STARLINK-3574,PAYLOAD,2023-10-23 04:52:53,15.08830142,0.000188,53.2176,307.9065,94.4594,265.6613,-7.4621e-05,-1.475e-05,0.0,0 STARLINK-3574,1 51874U 22022Y   23296.20339496 -.00001475  00000-0 -74621-4 0  9994,2 51874  53.2176 307.9065 0001880  94.4594 265.6613 15.08830142 91992,6917.911,95.438,541.076,538.475,0.0
51874.0,STARLINK-3574,PAYLOAD,2023-10-23 17:35:58,15.08835569,0.0001747,53.218,305.5311,92.7002,267.419,6.2951e-05,7.14e-06,0.0,0 STARLINK-3574,1 51874U 22022Y   23296.73331746  .00000714  00000-0  62951-4 0  9998,2 51874  53.2180 305.5311 0001747  92.7002 267.4190 15.08835569 92070,6917.894,95.438,540.967,538.55,0.0
51874.0,STARLINK-3574,PAYLOAD,2023-10-24 04:43:40,15.08841703,0.0001695,53.218,303.4485,91.11,269.0086,2.1946e-05,6.1e-07,0.0,0 STARLINK-3574,1 51874U 22022Y   23297.19699614  .00000061  00000-0  21946-4 0  9994,2 51874  53.2180 303.4485 0001695  91.1100 269.0086 15.08841703 92140,6917.875,95.437,540.913,538.568,0.0
51874.0,STARLINK-3574,PAYLOAD,2023-10-24 09:29:49,15.0884502,0.0001743,53.2179,302.5574,93.6134,266.5057,9.3068e-05,1.194e-05,0.0,0 STARLINK-3574,1 51874U 22022Y   23297.39571313  .00001194  00000-0  93068-4 0  9993,2 51874  53.2179 302.5574 0001743  93.6134 266.5057 15.08845020 92174,6917.865,95.437,540.936,538.524,0.0
51874.0,STARLINK-3574,PAYLOAD,2023-10-25 09:20:36,15.08849555,0.0001721,53.217,298.0952,88.9091,271.2099,0.00023798,3.502e-05,0.0,0 STARLINK-3574,1 51874U 22022Y   23298.38931017  .00003502  00000-0  23798-3 0  9991,2 51874  53.2170 298.0952 0001721  88.9091 271.2099 15.08849555 92322,6917.851,95.437,540.907,538.526,0.0
51874.0,STARLINK-3574,PAYLOAD,2023-10-26 04:25:14,15.08842523,0.0001994,53.2176,294.526,87.8143,272.3077,8.6495e-05,1.089e-05,0.0,0 STARLINK-3574,1 51874U 22022Y   23299.18419406  .00001089  00000-0  86495-4 0  9995,2 51874  53.2176 294.5260 0001994  87.8143 272.3077 15.08842523 92448,6917.873,95.437,541.117,538.358,0.0
51874.0,STARLINK-3574,PAYLOAD,2023-10-26 09:11:23,15.0884573,0.0001595,53.2162,293.6347,93.0603,267.0572,0.00011729,1.579e-05,0.0,0 STARLINK-3574,1 51874U 22022Y   23299.38291154  .00001579  00000-0  11729-3 0  9996,2 51874  53.2162 293.6347 0001595  93.0603 267.0572 15.08845730 92473,6917.863,95.437,540.831,538.624,0.0
51874.0,STARLINK-3574,PAYLOAD,2023-10-27 05:51:24,15.08851486,0.0001704,53.2161,289.768,94.5446,265.574,0.00016779,2.384e-05,0.0,0 STARLINK-3574,1 51874U 22022Y   23300.24402888  .00002384  00000-0  16779-3 0  9997,2 51874  53.2161 289.7680 0001704  94.5446 265.5740 15.08851486 92601,6917.845,95.437,540.889,538.531,0.0
51874.0,STARLINK-3574,PAYLOAD,2023-10-27 16:59:06,15.08845479,0.0001796,53.2172,287.688,90.5012,269.6186,0.00016657,2.364e-05,0.0,0 STARLINK-3574,1 51874U 22022Y   23300.70771203  .00002364  00000-0  16657-3 0  9991,2 51874  53.2172 287.6880 0001796  90.5012 269.6186 15.08845479 92679,6917.864,95.437,540.971,538.486,0.0
51874.0,STARLINK-3574,PAYLOAD,2023-10-28 05:42:11,15.08840746,0.0001751,53.2169,285.3081,97.351,262.7682,6.9243e-05,8.14e-06,0.0,0 STARLINK-3574,1 51874U 22022Y   23301.23763537  .00000814  00000-0  69243-4 0  9999,2 51874  53.2169 285.3081 0001751  97.3510 262.7682 15.08840746 92758,6917.878,95.438,540.954,538.532,0.0
51874.0,STARLINK-3574,PAYLOAD,2023-10-29 05:32:58,15.08846042,0.0001611,53.2164,280.8479,94.6244,265.4932,0.00017999,2.578e-05,0.0,0 STARLINK-3574,1 51874U 22022Y   23302.23123430  .00002578  00000-0  17999-3 0  9991,2 51874  53.2164 280.8479 0001611  94.6244 265.4932 15.08846042 92903,6917.862,95.437,540.841,538.612,0.0
51874.0,STARLINK-3574,PAYLOAD,2023-10-29 23:02:13,15.08837756,0.0001545,53.2167,277.5763,96.5513,263.5655,0.00015273,2.143e-05,0.0,0 STARLINK-3574,1 51874U 22022Y   23302.95987992  .00002143  00000-0  15273-3 0  9992,2 51874  53.2167 277.5763 0001545  96.5513 263.5655 15.08837756 93017,6917.887,95.438,540.821,538.683,0.0
51874.0,STARLINK-3574,PAYLOAD,2023-10-30 03:48:22,15.0883895,0.0001516,53.2164,276.6853,97.2946,262.8219,0.00016339,2.313e-05,0.0,0 STARLINK-3574,1 51874U 22022Y   23303.15859912  .00002313  00000-0  16339-3 0  9998,2 51874  53.2164 276.6853 0001516  97.2946 262.8219 15.08838950 93048,6917.884,95.438,540.797,538.7,0.0
51874.0,STARLINK-3574,PAYLOAD,2023-10-30 14:56:05,15.08836384,0.0001564,53.2172,274.6015,88.2455,271.8717,7.062e-05,8.36e-06,0.0,0 STARLINK-3574,1 51874U 22022Y   23303.62228061  .00000836  00000-0  70620-4 0  9997,2 51874  53.2172 274.6015 0001564  88.2455 271.8717 15.08836384 93113,6917.891,95.438,540.838,538.674,0.0
51874.0,STARLINK-3574,PAYLOAD,2023-10-31 05:14:33,15.08844525,0.0001451,53.2163,271.9279,99.6097,260.5059,0.00011181,1.492e-05,0.0,0 STARLINK-3574,1 51874U 22022Y   23304.21843855  .00001492  00000-0  11181-3 0  9992,2 51874  53.2163 271.9279 0001451  99.6097 260.5059 15.08844525 93208,6917.867,95.437,540.735,538.728,0.0
51874.0,STARLINK-3574,PAYLOAD,2023-11-01 05:05:20,15.08844861,0.0001435,53.2167,267.4668,93.9133,266.2023,0.00016445,2.331e-05,0.0,0 STARLINK-3574,1 51874U 22022Y   23305.21204066  .00002331  00000-0  16445-3 0  9999,2 51874  53.2167 267.4668 0001435  93.9133 266.2023 15.08844861 93357,6917.866,95.437,540.723,538.738,0.0
51874.0,STARLINK-3574,PAYLOAD,2023-11-01 14:37:39,15.08846556,0.0001464,53.217,265.6823,82.5696,277.5462,0.00012996,1.781e-05,0.0,0 STARLINK-3574,1 51874U 22022Y   23305.60947967  .00001781  00000-0  12996-3 0  9991,2 51874  53.2170 265.6823 0001464  82.5696 277.5462 15.08846556 93416,6917.86,95.437,540.738,538.713,0.0
51874.0,STARLINK-3574,PAYLOAD,2023-11-02 06:31:30,15.0885069,0.0001469,53.216,262.7099,89.3832,270.7329,0.00026902,3.997e-05,0.0,0 STARLINK-3574,1 51874U 22022Y   23306.27187875  .00003997  00000-0  26902-3 0  9992,2 51874  53.2160 262.7099 0001469  89.3832 270.7329 15.08850690 93512,6917.848,95.437,540.729,538.696,0.0
51874.0,STARLINK-3574,PAYLOAD,2023-11-02 14:28:26,15.08841136,0.0001604,53.2175,261.2202,94.9994,265.1181,5.4543e-05,5.8e-06,0.0,0 STARLINK-3574,1 51874U 22022Y   23306.60308066  .00000580  00000-0  54543-4 0  9994,2 51874  53.2175 261.2202 0001604  94.9994 265.1181 15.08841136 93564,6917.877,95.437,540.852,538.632,0.0
51874.0,STARLINK-3574,PAYLOAD,2023-11-03 14:19:13,15.0883506,0.0001809,53.2171,256.761,87.6166,272.5033,3.0483e-06,-2.4e-06,0.0,0 STARLINK-3574,1 51874U 22022Y   23307.59668807 -.00000240  00000-0  30483-5 0  9997,2 51874  53.2171 256.7610 0001809  87.6166 272.5033 15.08835060 93713,6917.895,95.438,541.012,538.509,0.0
51874.0,STARLINK-3574,PAYLOAD,2023-11-04 06:13:04,15.08850847,0.0001636,53.2172,253.784,99.3767,260.741,0.0003034,4.545e-05,0.0,0 STARLINK-3574,1 51874U 22022Y   23308.25908081  .00004545  00000-0  30340-3 0  9993,2 51874  53.2172 253.7840 0001636  99.3767 260.7410 15.08850847 93810,6917.847,95.437,540.844,538.58,0.0
51874.0,STARLINK-3574,PAYLOAD,2023-11-04 14:10:00,15.08835111,0.0001854,53.2175,252.2981,101.1266,258.9935,8.6386e-05,1.087e-05,0.0,0 STARLINK-3574,1 51874U 22022Y   23308.59028839  .00001087  00000-0  86386-4 0  9994,2 51874  53.2175 252.2981 0001854 101.1266 258.9935 15.08835111 93864,6917.895,95.438,541.043,538.478,0.0
51874.0,STARLINK-3574,PAYLOAD,2023-11-05 02:53:05,15.0885533,0.0001595,53.2156,249.9242,86.6435,273.4739,0.0007613,0.00011854,0.0,0 STARLINK-3574,1 51874U 22022Y   23309.12020598  .00011854  00000-0  76130-3 0  9996,2 51874  53.2156 249.9242 0001595  86.6435 273.4739 15.08855330 93941,6917.834,95.437,540.802,538.595,0.0
51874.0,STARLINK-3574,PAYLOAD,2023-11-06 02:43:51,15.08918175,0.0001512,53.2168,245.4608,99.8427,260.2735,0.003805,0.00060923,0.0,0 STARLINK-3574,1 51874U 22022Y   23310.11379077  .00060923  00000-0  38050-2 0  9995,2 51874  53.2168 245.4608 0001512  99.8427 260.2735 15.08918175 94091,6917.641,95.433,540.552,538.461,0.0
